
# Worst residual: 67.38 km
# MJD 59534.000000 (2021 Nov 16  0:00)
A10AKvK = A10ACM5 = A10zoXc
1 99999U 00000    21320.49919926  .00000000  00000-0  00000-0 0 13470
2 99999 008.8678 243.6974 4584129 309.2903 118.7925 00.76833886    00

# Worst residual: 36.79 km
# MJD 59535.000000 (2021 Nov 17  0:00)
A10AKvK = A10ACM5 = A10zoXc
1 99999U 00000    21321.49919926  .00000000  00000-0  00000-0 0 13471
2 99999 008.8336 243.8324 4555298 309.5645 034.5951 00.76948504    01

# Worst residual: 74.74 km
# MJD 59536.000000 (2021 Nov 18  0:00)
A10AKvK = A10ACM5 = A10zoXc
1 99999U 00000    21322.49919926  .00000000  00000-0  00000-0 0 13472
2 99999 008.8049 244.0705 4533086 309.7830 310.3549 00.76763085    04

# Worst residual: 37.98 km
# MJD 59537.000000 (2021 Nov 19  0:00)
A10AKvK = A10ACM5 = A10zoXc
1 99999U 00000    21323.49919926  .00000000  00000-0  00000-0 0 13473
2 99999 008.7853 244.2610 4499737 310.0128 226.4211 00.76646537    07

# Worst residual: 55.29 km
# MJD 59538.000000 (2021 Nov 20  0:00)
A10AKvK = A10ACM5 = A10zoXc
1 99999U 00000    21324.49919926  .00000000  00000-0  00000-0 0 13474
2 99999 008.7634 244.3653 4483608 310.3978 142.4225 00.76783724    00

# Worst residual: 38.61 km
# MJD 59539.000000 (2021 Nov 21  0:00)
A10AKvK = A10ACM5 = A10zoXc
1 99999U 00000    21325.49919926  .00000000  00000-0  00000-0 0 13475
2 99999 008.7286 244.4924 4457828 310.6062 058.3854 00.76952649    04

# Worst residual: 69.28 km
# MJD 59540.000000 (2021 Nov 22  0:00)
A10AKvK = A10ACM5 = A10zoXc
1 99999U 00000    21326.49919926  .00000000  00000-0  00000-0 0 13476
2 99999 008.6919 244.7186 4433079 310.8743 334.0740 00.76826756    06

# Worst residual: 26.32 km
# MJD 59541.000000 (2021 Nov 23  0:00)
A10AKvK = A10ACM5 = A10zoXc
1 99999U 00000    21327.49919926  .00000000  00000-0  00000-0 0 13477
2 99999 008.6714 244.9235 4401020 311.0263 250.1725 00.76650507    07

# Worst residual: 47.99 km
# MJD 59542.000000 (2021 Nov 24  0:00)
A10AKvK = A10ACM5 = A10zoXc
1 99999U 00000    21328.49919926  .00000000  00000-0  00000-0 0 13478
2 99999 008.6505 245.0623 4378717 311.4155 166.1741 00.76732627    06

# Worst residual: 57.36 km
# MJD 59543.000000 (2021 Nov 25  0:00)
A10AKvK = A10ACM5 = A10zoXc
1 99999U 00000    21329.49919926  .00000000  00000-0  00000-0 0 13479
2 99999 008.6171 245.1875 4358466 311.6120 082.2343 00.76934072    02

# Worst residual: 62.87 km
# MJD 59544.000000 (2021 Nov 26  0:00)
A10AKvK = A10ACM5 = A10zoXc
1 99999U 00000    21330.49919926  .00000000  00000-0  00000-0 0 13471
2 99999 008.5764 245.3822 4328648 311.9177 357.9125 00.76886912    06

# Worst residual: 39.24 km
# MJD 59545.000000 (2021 Nov 27  0:00)
A10AKvK = A10ACM5 = A10zoXc
1 99999U 00000    21331.49919926  .00000000  00000-0  00000-0 0 13472
2 99999 008.5477 245.6341 4300350 312.0231 273.9607 00.76678163    08

# Worst residual: 49.11 km
# MJD 59546.000000 (2021 Nov 28  0:00)
A10AKvK = A10ACM5 = A10zoXc
1 99999U 00000    21332.49919926  .00000000  00000-0  00000-0 0 13473
2 99999 008.5286 245.8252 4270488 312.3529 189.9946 00.76695390    03

# Worst residual: 70.06 km
# MJD 59547.000000 (2021 Nov 29  0:00)
A10AKvK = A10ACM5 = A10zoXc
1 99999U 00000    21333.49919926  .00000000  00000-0  00000-0 0 13474
2 99999 008.4967 245.9483 4253521 312.5904 106.0858 00.76895917    02

# Worst residual: 45.11 km
# MJD 59548.000000 (2021 Nov 30  0:00)
A10AKvK = A10ACM5 = A10zoXc
1 99999U 00000    21334.49919926  .00000000  00000-0  00000-0 0 13475
2 99999 008.4542 246.1274 4220373 312.8687 021.8472 00.76932289    02

# Worst residual: 65.48 km
# MJD 59549.000000 (2021 Dec  1  0:00)
A10AKvK = A10ACM5 = A10zoXc
1 99999U 00000    21335.49919926  .00000000  00000-0  00000-0 0 13476
2 99999 008.4217 246.3873 4194136 313.0017 297.7856 00.76722846    01

# Worst residual: 46.10 km
# MJD 59550.000000 (2021 Dec  2  0:00)
A10AKvK = A10ACM5 = A10zoXc
1 99999U 00000    21336.49919926  .00000000  00000-0  00000-0 0 13477
2 99999 008.3992 246.6001 4158565 313.2518 213.8777 00.76667123    07

# Worst residual: 66.89 km
# MJD 59551.000000 (2021 Dec  3  0:00)
A10AKvK = A10ACM5 = A10zoXc
1 99999U 00000    21337.49919926  .00000000  00000-0  00000-0 0 13478
2 99999 008.3725 246.7373 4141209 313.5493 129.9420 00.76844972    07

# Worst residual: 31.80 km
# MJD 59552.000000 (2021 Dec  4  0:00)
A10AKvK = A10ACM5 = A10zoXc
1 99999U 00000    21338.49919926  .00000000  00000-0  00000-0 0 13479
2 99999 008.3309 246.8720 4106875 313.7841 045.8493 00.76957728    01

# Worst residual: 68.82 km
# MJD 59553.000000 (2021 Dec  5  0:00)
A10AKvK = A10ACM5 = A10zoXc
1 99999U 00000    21339.49919926  .00000000  00000-0  00000-0 0 13470
2 99999 008.2886 247.0851 4079618 314.0244 321.6650 00.76778592    03

# Worst residual: 40.66 km
# MJD 59554.000000 (2021 Dec  6  0:00)
A10AKvK = A10ACM5 = A10zoXc
1 99999U 00000    21340.49919926  .00000000  00000-0  00000-0 0 13472
2 99999 008.2628 247.3729 4041675 314.1109 237.8348 00.76655711    06

# Worst residual: 53.17 km
# MJD 59555.000000 (2021 Dec  7  0:00)
A10AKvK = A10ACM5 = A10zoXc
1 99999U 00000    21341.49919926  .00000000  00000-0  00000-0 0 13473
2 99999 008.2392 247.4653 4018615 314.5088 153.8941 00.76787787    04

# Worst residual: 45.47 km
# MJD 59556.000000 (2021 Dec  8  0:00)
A10AKvK = A10ACM5 = A10zoXc
1 99999U 00000    21342.49919926  .00000000  00000-0  00000-0 0 13474
2 99999 008.1968 247.6323 3989796 314.6351 069.9661 00.76961243    05

# Worst residual: 58.79 km
# MJD 59557.000000 (2021 Dec  9  0:00)
A10AKvK = A10ACM5 = A10zoXc
1 99999U 00000    21343.49919926  .00000000  00000-0  00000-0 0 13475
2 99999 008.1512 247.8592 3959138 314.9004 345.7198 00.76842015    00

# Worst residual: 25.67 km
# MJD 59558.000000 (2021 Dec 10  0:00)
A10AKvK = A10ACM5 = A10zoXc
1 99999U 00000    21344.49919926  .00000000  00000-0  00000-0 0 13476
2 99999 008.1269 248.0924 3924157 314.9888 261.9063 00.76663924    04

# Worst residual: 54.99 km
# MJD 59559.000000 (2021 Dec 11  0:00)
A10AKvK = A10ACM5 = A10zoXc
1 99999U 00000    21345.49919926  .00000000  00000-0  00000-0 0 13477
2 99999 008.1015 248.2743 3894811 315.3334 177.9741 00.76738402    01

# Worst residual: 64.44 km
# MJD 59560.000000 (2021 Dec 12  0:00)
A10AKvK = A10ACM5 = A10zoXc
1 99999U 00000    21346.49919926  .00000000  00000-0  00000-0 0 13478
2 99999 008.0639 248.4239 3870998 315.4755 094.1288 00.76943985    02

# Worst residual: 57.99 km
# MJD 59561.000000 (2021 Dec 13  0:00)
A10AKvK = A10ACM5 = A10zoXc
1 99999U 00000    21347.49919926  .00000000  00000-0  00000-0 0 13479
2 99999 008.0187 248.5907 3834982 315.7986 009.8830 00.76900143    00

# Worst residual: 49.37 km
# MJD 59562.000000 (2021 Dec 14  0:00)
A10AKvK = A10ACM5 = A10zoXc
1 99999U 00000    21348.49919926  .00000000  00000-0  00000-0 0 13470
2 99999 007.9885 248.8847 3802821 315.8326 286.0041 00.76689855    02
